NORAD_CAT_ID,OBJECT_NAME,OBJECT_TYPE,EPOCH,MEAN_MOTION,ECCENTRICITY,INCLINATION,RA_OF_ASC_NODE,ARG_OF_PERICENTER,MEAN_ANOMALY,BSTAR,MEAN_MOTION_DOT,MEAN_MOTION_DDOT,TLE_LINE0,TLE_LINE1,TLE_LINE2,SEMIMAJOR_AXIS,PERIOD,APOGEE,PERIGEE,DECAYED
54204.0,STARLINK-5241,PAYLOAD,2024-05-27 09:57:46,15.08834629,0.0001739,53.2184,37.3765,50.7461,309.3686,0.00032014,4.81e-05,0.0,0 STARLINK-5241,1 54204U 22141AZ  24148.41511580  .00004810  00000-0  32014-3 0  9995,2 54204  53.2184  37.3765 0001739  50.7461 309.3686 15.08834629 87684,6917.897,95.438,540.965,538.559,0.0
54204.0,STARLINK-5241,PAYLOAD,2024-05-27 22:40:51,15.08840786,0.0001366,53.2186,34.996,71.1416,288.9724,7.1996e-05,8.58e-06,0.0,0 STARLINK-5241,1 54204U 22141AZ  24148.94503776  .00000858  00000-0  71996-4 0  9992,2 54204  53.2186  34.9960 0001366  71.1416 288.9724 15.08840786 87764,6917.878,95.438,540.688,538.798,0.0
54204.0,STARLINK-5241,PAYLOAD,2024-05-28 01:51:37,15.08843723,0.000134,53.2188,34.4003,74.6419,285.4721,9.0995e-05,1.161e-05,0.0,0 STARLINK-5241,1 54204U 22141AZ  24149.07751489  .00001161  00000-0  90995-4 0  9991,2 54204  53.2188  34.4003 0001340  74.6419 285.4721 15.08843723 88014,6917.869,95.437,540.661,538.807,0.0
54204.0,STARLINK-5241,PAYLOAD,2024-05-28 09:48:32,15.08845065,0.0001385,53.219,32.9137,72.4912,287.6232,9.0155e-05,1.147e-05,0.0,0 STARLINK-5241,1 54204U 22141AZ  24149.40871344  .00001147  00000-0  90155-4 0  9993,2 54204  53.2190  32.9137 0001385  72.4912 287.6232 15.08845065 87832,6917.865,95.437,540.688,538.772,0.0
54204.0,STARLINK-5241,PAYLOAD,2024-05-28 22:31:37,15.08845666,0.0001161,53.2184,30.5339,97.9454,262.167,3.853e-05,3.26e-06,0.0,0 STARLINK-5241,1 54204U 22141AZ  24149.93863136  .00000326  00000-0  38530-4 0  9998,2 54204  53.2184  30.5339 0001161  97.9454 262.1670 15.08845666 87918,6917.863,95.437,540.531,538.925,0.0
54204.0,STARLINK-5241,PAYLOAD,2024-05-29 01:42:23,15.088459,0.000116,53.2184,29.9392,97.7913,262.3211,3.8474e-05,3.25e-06,0.0,0 STARLINK-5241,1 54204U 22141AZ  24150.07111061  .00000325  00000-0  38474-4 0  9994,2 54204  53.2184  29.9392 0001160  97.7913 262.3211 15.08845900 87932,6917.862,95.437,540.53,538.925,0.0
54204.0,STARLINK-5241,PAYLOAD,2024-05-29 20:47:02,15.08839015,0.0001194,53.2182,26.3699,95.449,264.6638,-1.4995e-05,-5.26e-06,0.0,0 STARLINK-5241,1 54204U 22141AZ  24150.86599671 -.00000526  00000-0 -14995-4 0  9995,2 54204  53.2182  26.3699 0001194  95.4490 264.6638 15.08839015 88280,6917.883,95.438,540.574,538.922,0.0
54204.0,STARLINK-5241,PAYLOAD,2024-05-30 01:33:11,15.08838314,0.0001216,53.2183,25.4782,97.8695,262.2435,-1.9467e-05,-5.98e-06,0.0,0 STARLINK-5241,1 54204U 22141AZ  24151.06471710 -.00000598  00000-0 -19467-4 0  9999,2 54204  53.2183  25.4782 0001216  97.8695 262.2435 15.08838314 88080,6917.886,95.438,540.592,538.909,0.0
54204.0,STARLINK-5241,PAYLOAD,2024-05-30 20:37:49,15.08838282,0.0001336,53.2185,21.9096,101.9791,258.1351,3.1762e-05,2.18e-06,0.0,0 STARLINK-5241,1 54204U 22141AZ  24151.85959617  .00000218  00000-0  31762-4 0  9992,2 54204  53.2185  21.9096 0001336 101.9791 258.1351 15.08838282 88207,6917.886,95.438,540.675,538.826,0.0
54204.0,STARLINK-5241,PAYLOAD,2024-05-31 01:23:58,15.08838467,0.0001346,53.2185,21.0176,102.8198,257.2945,3.2806e-05,2.34e-06,0.0,0 STARLINK-5241,1 54204U 22141AZ  24152.05831625  .00000234  00000-0  32806-4 0  9991,2 54204  53.2185  21.0176 0001346 102.8198 257.2945 15.08838467 88461,6917.885,95.438,540.681,538.819,0.0
54204.0,STARLINK-5241,PAYLOAD,2024-05-31 20:28:37,15.08825437,0.0001367,53.2185,17.4517,92.5299,267.5849,3.527e-05,2.73e-06,0.0,0 STARLINK-5241,1 54204U 22141AZ  24152.85320607  .00000273  00000-0  35270-4 0  9993,2 54204  53.2185  17.4517 0001367  92.5299 267.5849 15.08825437 88582,6917.925,95.438,540.736,538.844,0.0
54204.0,STARLINK-5241,PAYLOAD,2024-05-31 22:03:59,15.08830815,0.0001411,53.2191,17.1543,96.0937,264.0215,1.3888e-05,-6.7e-07,0.0,0 STARLINK-5241,1 54204U 22141AZ  24152.91944414 -.00000067  00000-0  13888-4 0  9991,2 54204  53.2191  17.1543 0001411  96.0937 264.0215 15.08830815 88364,6917.908,95.438,540.75,538.797,0.0
54204.0,STARLINK-5241,PAYLOAD,2024-06-01 07:36:18,15.08841725,0.0001185,53.2189,15.3706,90.7283,269.3845,0.00010007,1.305e-05,0.0,0 STARLINK-5241,1 54204U 22141AZ  24153.31687561  .00001305  00000-0  10007-3 0  9997,2 54204  53.2189  15.3706 0001185  90.7283 269.3845 15.08841725 88656,6917.875,95.437,540.56,538.92,0.0
54204.0,STARLINK-5241,PAYLOAD,2024-06-01 20:19:24,15.08833809,0.0001277,53.2185,12.9933,96.1838,263.93,-5.2509e-05,-1.123e-05,0.0,0 STARLINK-5241,1 54204U 22141AZ  24153.84680771 -.00001123  00000-0 -52509-4 0  9995,2 54204  53.2185  12.9933 0001277  96.1838 263.9300 15.08833809 88734,6917.899,95.438,540.648,538.881,0.0
54204.0,STARLINK-5241,PAYLOAD,2024-06-02 07:27:05,15.08846253,0.0001421,53.2196,10.9113,85.6045,274.5109,4.9976e-05,5.08e-06,0.0,0 STARLINK-5241,1 54204U 22141AZ  24154.31047761  .00000508  00000-0  49976-4 0  9992,2 54204  53.2196  10.9113 0001421  85.6045 274.5109 15.08846253 88808,6917.861,95.437,540.709,538.743,0.0
54204.0,STARLINK-5241,PAYLOAD,2024-06-03 07:17:49,15.08870925,0.0001362,53.2191,6.4506,107.4947,252.6194,0.00028904,4.319e-05,0.0,0 STARLINK-5241,1 54204U 22141AZ  24155.30404616  .00004319  00000-0  28904-3 0  9999,2 54204  53.2191   6.4506 0001362 107.4947 252.6194 15.08870925 88957,6917.786,95.436,540.593,538.709,0.0
54204.0,STARLINK-5241,PAYLOAD,2024-06-03 20:00:57,15.0882115,0.0001099,53.2187,4.0698,95.8346,264.2771,-5.1256e-05,-1.103e-05,0.0,0 STARLINK-5241,1 54204U 22141AZ  24155.83400393 -.00001103  00000-0 -51256-4 0  9992,2 54204  53.2187   4.0698 0001099  95.8346 264.2771 15.08821150 89034,6917.938,95.439,540.563,539.043,0.0
54204.0,STARLINK-5241,PAYLOAD,2024-06-04 07:08:39,15.08843753,7.84e-05,53.218,1.9877,97.2488,262.8593,2.0932e-06,-2.54e-06,0.0,0 STARLINK-5241,1 54204U 22141AZ  24156.29767366 -.00000254  00000-0  20932-5 0  9992,2 54204  53.2180   1.9877 0000784  97.2488 262.8593 15.08843753 89102,6917.869,95.437,540.276,539.192,0.0
54204.0,STARLINK-5241,PAYLOAD,2024-06-04 19:51:44,15.08849269,0.0002577,53.2129,359.6089,87.7116,272.4172,-0.00013531,-2.442e-05,0.0,0 STARLINK-5241,1 54204U 22141AZ  24156.82759525 -.00002442  00000-0 -13531-3 0  9996,2 54204  53.2129 359.6089 0002577  87.7116 272.4172 15.08849269 88957,6917.852,95.437,541.5,537.934,0.0
54204.0,STARLINK-5241,PAYLOAD,2024-06-04 23:02:30,15.08821244,0.0001403,53.2191,359.0138,105.2815,254.8333,0.00012572,1.712e-05,0.0,0 STARLINK-5241,1 54204U 22141AZ  24156.96007510  .00001712  00000-0  12572-3 0  9992,2 54204  53.2191 359.0138 0001403 105.2815 254.8333 15.08821244 89209,6917.938,95.439,540.773,538.832,0.0
54204.0,STARLINK-5241,PAYLOAD,2024-06-05 06:59:25,15.08834821,8.59e-05,53.2128,357.5269,116.5001,243.6079,0.00025888,3.834e-05,0.0,0 STARLINK-5241,1 54204U 22141AZ  24157.29126352  .00003834  00000-0  25888-3 0  9996,2 54204  53.2128 357.5269 0000859 116.5001 243.6079 15.08834821 89256,6917.896,95.438,540.355,539.167,0.0
54204.0,STARLINK-5241,PAYLOAD,2024-06-05 19:42:31,15.08833654,0.0002054,53.2097,355.1466,101.5397,258.5826,0.00022527,3.298e-05,0.0,0 STARLINK-5241,1 54204U 22141AZ  24157.82119235  .00003298  00000-0  22527-3 0  9998,2 54204  53.2097 355.1466 0002054 101.5397 258.5826 15.08833654 89107,6917.9,95.438,541.186,538.344,0.0
54204.0,STARLINK-5241,PAYLOAD,2024-06-06 19:33:18,15.0883419,0.0001822,53.216,350.686,104.9839,255.1355,0.00010181,1.332e-05,0.0,0 STARLINK-5241,1 54204U 22141AZ  24158.81480052  .00001332  00000-0  10181-3 0  9996,2 54204  53.2160 350.6860 0001822 104.9839 255.1355 15.08834190 89483,6917.898,95.438,541.024,538.503,0.0
54204.0,STARLINK-5241,PAYLOAD,2024-06-07 13:02:34,15.08824449,4.55e-05,53.2178,347.4159,77.4695,282.6348,-9.7718e-05,-1.842e-05,0.0,0 STARLINK-5241,1 54204U 22141AZ  24159.54345496 -.00001842  00000-0 -97718-4 0  9999,2 54204  53.2178 347.4159 0000455  77.4695 282.6348 15.08824449 89597,6917.928,95.439,540.108,539.478,0.0
54204.0,STARLINK-5241,PAYLOAD,2024-06-07 19:24:06,15.08838624,8.78e-05,53.2127,346.2251,93.4493,266.6599,0.00010111,1.322e-05,0.0,0 STARLINK-5241,1 54204U 22141AZ  24159.80840579  .00001322  00000-0  10111-3 0  9992,2 54204  53.2127 346.2251 0000878  93.4493 266.6599 15.08838624 89639,6917.885,95.438,540.357,539.142,0.0
54204.0,STARLINK-5241,PAYLOAD,2024-06-07 22:34:52,15.08840332,3.38e-05,53.217,345.634,72.0168,288.0861,9.7659e-05,1.267e-05,0.0,0 STARLINK-5241,1 54204U 22141AZ  24159.94088573  .00001267  00000-0  97659-4 0  9996,2 54204  53.2170 345.6340 0000338  72.0168 288.0861 15.08840332 89428,6917.879,95.438,539.978,539.511,0.0
54204.0,STARLINK-5241,PAYLOAD,2024-06-08 04:56:23,15.0885521,1.31e-05,53.2206,344.4437,356.0228,4.0763,0.0002018,2.927e-05,0.0,0 STARLINK-5241,1 54204U 22141AZ  24160.20582998  .00002927  00000-0  20180-3 0  9995,2 54204  53.2206 344.4437 0000131 356.0228   4.0763 15.08855210 89692,6917.834,95.437,539.79,539.608,0.0
54204.0,STARLINK-5241,PAYLOAD,2024-06-08 19:14:53,15.08827659,5.41e-05,53.2198,341.7674,14.067,346.0337,0.00011814,1.593e-05,0.0,0 STARLINK-5241,1 54204U 22141AZ  24160.80201190  .00001593  00000-0  11814-3 0  9995,2 54204  53.2198 341.7674 0000541  14.0670 346.0337 15.08827659 89784,6917.918,95.438,540.157,539.409,0.0
54204.0,STARLINK-5241,PAYLOAD,2024-06-08 20:50:16,15.08828315,5.43e-05,53.2195,341.4702,24.6756,335.4262,0.00012086,1.636e-05,0.0,0 STARLINK-5241,1 54204U 22141AZ  24160.86825191  .00001636  00000-0  12086-3 0  9994,2 54204  53.2195 341.4702 0000543  24.6756 335.4262 15.08828315 89569,6917.916,95.438,540.157,539.405,0.0
54204.0,STARLINK-5241,PAYLOAD,2024-06-09 04:47:11,15.08848618,3.92e-05,53.2167,339.9828,20.7843,339.3165,0.00027578,4.105e-05,0.0,0 STARLINK-5241,1 54204U 22141AZ  24161.19943447  .00004105  00000-0  27578-3 0  9992,2 54204  53.2167 339.9828 0000392  20.7843 339.3165 15.08848618 89849,6917.854,95.437,539.99,539.448,0.0
